STARLINK-1434           
1 45712U 20035BH  26068.24137979  .00054112  00000+0  20295-2 0  9995
2 45712  53.0547  22.1128 0005343  88.0400 272.1210 15.26724568319325
STARLINK-32092          
1 59700U 24086U   26068.05343544  .00000253  00000+0  18739-4 0  9992
2 59700  43.0043  63.5881 0001603 271.6873  88.3795 15.27581312104013
